SUOMI NPP [+]           
1 37849U 11061A   23025.44832660  .00000203  00000+0  11735-3 0  9999
2 37849  98.7563 326.1409 0001226  72.5498  36.8577 14.19541001582683
NOAA 20 [+]             
1 43013U 17073A   23025.53152253  .00000165  00000+0  99010-4 0  9991
2 43013  98.7401 325.8279 0001533  99.3939 260.7410 14.19549947268731
NOAA 21 (JPSS-2) [+]    
1 54234U 22150A   23024.84435176  .00000232  00000+0  13064-3 0  9990
2 54234  98.7040 325.1432 0001118  84.2054 275.9250 14.19561557 10715
CELESTIS-02             
1 25160U 98007D   23024.49248642  .00000251  00000+0  16936-3 0  9993
2 25160 107.9912 351.8831 0060544  91.9267  15.9143 14.21691605294493
CELESTIS-03             
1 26034U 99070C   23025.43628385  .00049158  00000+0  16917-2 0  9993
2 26034  98.2966  59.8554 0009446  90.1278 270.1042 15.29856779254874
O3B FM5                 
1 39188U 13031A   23023.35684365 -.00000019  00000+0  00000+0 0  9996
2 39188   0.0656   1.2412 0002895 306.4190  52.3078  5.00115360175059
O3B FM4                 
1 39189U 13031B   23021.41383621 -.00000016  00000+0  00000+0 0  9990
2 39189   0.0380 357.8854 0002837 307.8256  54.2582  5.00115850174973
O3B FM2                 
1 39190U 13031C   23024.30387035 -.00000020  00000+0  00000+0 0  9991
2 39190   0.0332 355.4241 0002809 310.7847  53.7592  5.00115134175076
O3B PFM                 
1 39191U 13031D   23023.13069193 -.00000019  00000+0  00000+0 0  9992
2 39191   0.0566   2.0460 0002734 299.6154  58.3063  5.00115851175033
O3B FM3                 
1 40079U 14038A   23025.38421676 -.00000021  00000+0  00000+0 0  9997
2 40079   0.0456 358.6440 0003966 269.2701  92.0343  5.00116657156158
O3B FM7                 
1 40080U 14038B   23024.33095387 -.00000020  00000+0  00000+0 0  9998
2 40080   0.0433 353.7892 0003297 343.7550  22.4353  5.00115582156131
O3B FM6                 
1 40081U 14038C   23022.95813629 -.00000019  00000+0  00000+0 0  9990
2 40081   0.0449 359.5138 0002809 302.5864  57.8671  5.00115273156069
O3B FM8                 
1 40082U 14038D   23024.21131149 -.00000020  00000+0  00000+0 0  9994
2 40082   0.0418   0.4579 0002641 301.8539  57.6565  5.00115707156097
O3B FM10                
1 40348U 14083A   23021.03925495 -.00000015  00000+0  00000+0 0  9995
2 40348   0.0524   5.3463 0002716 294.8726  59.7501  5.00115135147872
O3B FM11                
1 40349U 14083B   23025.05046694 -.00000021  00000+0  00000+0 0  9994
2 40349   0.0539   0.2212 0003167 315.4189  44.3284  5.00115374148075
O3B FM12                
1 40350U 14083C   23025.07770379 -.00000021  00000+0  00000+0 0  9992
2 40350   0.0530   0.5191 0002936 304.6819  54.7653  5.00115269148078
O3B FM9                 
1 40351U 14083D   23024.30481448 -.00000020  00000+0  00000+0 0  9993
2 40351   0.0546 359.2245 0002752 305.9389  54.8048  5.00116089148049
DIAMOND RED             
1 42783U 17036U   23025.36655211  .00018738  00000+0  59674-3 0  9992
2 42783  97.1727  63.7989 0007567 255.6565 104.3838 15.32578381310868
DIAMOND GREEN           
1 42785U 17036W   23025.09840094  .00024838  00000+0  78394-3 0  9997
2 42785  97.1726  63.6226 0007383 258.4694 101.5720 15.32811410310819
DIAMOND BLUE            
1 42786U 17036X   23025.36133164  .00020083  00000+0  63613-3 0  9997
2 42786  97.1728  63.8643 0007399 257.6586 102.3828 15.32739283310854
LEO VANTAGE 1           
1 43113U 18004C   23023.78475241  .00006567  00000+0  52377-3 0  9993
2 43113  99.2413 132.4709 0396422 248.8927 106.9466 14.55015802256268
O3B FM15                
1 43231U 18024A   23025.37019885 -.00000021  00000+0  00000+0 0  9993
2 43231   0.0522   8.8855 0003059 295.0115  56.0678  5.00116239 89228
O3B FM16                
1 43232U 18024B   23022.22539016 -.00000018  00000+0  00000+0 0  9994
2 43232   0.0528  13.5891 0003075 287.8705  58.5053  5.00116012 89054
O3B FM14                
1 43233U 18024C   23023.26462748 -.00000019  00000+0  00000+0 0  9998
2 43233   0.0525  15.1150 0003045 290.9133  53.9378  5.00115423 89105
O3B FM13                
1 43234U 18024D   23023.51806502 -.00000020  00000+0  00000+0 0  9999
2 43234   0.0671 359.1821 0003852 300.5993  60.1745  5.00115121 89127
O3B FM20                
1 44112U 19020A   23023.09142022 -.00000019  00000+0  00000+0 0  9993
2 44112   0.0517   5.3341 0003419 298.8244  55.8034  5.00115491 69564
O3B FM19                
1 44113U 19020B   23020.91949793 -.00000015  00000+0  00000+0 0  9998
2 44113   0.0720  10.8849 0002889 318.1595  30.9347  5.00115035 69442
O3B FM17                
1 44114U 19020C   23024.19813880 -.00000020  00000+0  00000+0 0  9996
2 44114   0.0371  22.7396 0003170 279.2021  58.0214  5.00115696 69615
O3B FM18                
1 44115U 19020D   23023.94472606 -.00000020  00000+0  00000+0 0  9996
2 44115   0.0521   4.9798 0002950 297.1666  57.8191  5.00115849 69598
SALSAT                  
1 46495U 20068K   23020.37026432  .00006526  00000+0  45307-3 0  9998
2 46495  97.7549 327.1702 0014040 261.2160  98.7476 15.05834602126813
ISS (ZARYA)             
1 25544U 98067A   23025.69933734  .00024770  00000+0  43837-3 0  9993
2 25544  51.6454 314.3099 0004769 277.6272 159.1176 15.50138530379690
AEROCUBE 12A            
1 43556U 18046C   23025.11538804  .00084032  00000+0  12978-2 0  9999
2 43556  51.6308 174.7044 0004237 140.5559 219.5740 15.53378206253570
AEROCUBE 12B            
1 43557U 18046D   23024.74265830  .00053395  00000+0  10190-2 0  9996
2 43557  51.6331 186.3622 0005564 125.0441 235.1070 15.47595867253331
LEMUR-2-VU              
1 43558U 18046E   23025.48600603  .00675462  20071-3  17532-2 0  9996
2 43558  51.6231 131.1468 0008279 353.4709   6.6189 15.94406689254188
LEMUR-2-TOMHENDERSON    
1 43561U 18046H   23025.39646317  .00558261  00000+0  23331-2 0  9999
2 43561  51.6375 140.3809 0009313  63.3003 296.8953 15.83564176253619
ICS-EF (ISS DEB)        
1 45265U 98067RJ  23024.92941342  .00143935  00000+0  57499-3 0  9998
2 45265  51.6280 261.1021 0001537 243.0055 117.0792 15.85625946166443
ISS DEB                 
1 47853U 98067RZ  23025.15974143  .00026627  00000+0  33472-3 0  9997
2 47853  51.6395 301.9757 0002743 108.8767 251.2524 15.59479979106433
MMSATS-1                
1 47976U 98067SJ  23025.59577765  .00125481  00000+0  68101-3 0  9995
2 47976  51.6362 277.5403 0003714 150.6154 283.4642 15.79122785105072
CSS (TIANHE)            
1 48274U 21035A   23025.49348575  .00018393  00000+0  21788-3 0  9995
2 48274  41.4760 305.8368 0003251  33.5456 136.2011 15.60800333 99516
ISS (NAUKA)             
1 49044U 21066A   23019.38502698  .00044714  00000+0  79094-3 0  9993
2 49044  51.6441 345.5952 0005080 248.4872 211.5591 15.49849381378706
FREGAT DEB              
1 49271U 11037PF  23025.22289109  .00034914  00000+0  12773+0 0  9999
2 49271  51.5900 343.3973 0915593 139.6698 227.5832 11.99023178 73708
KITSUNE                 
1 52148U 98067TK  23025.56936927  .00182610  00000+0  10127-2 0  9999
2 52148  51.6325 292.4138 0002674 103.5229 319.8027 15.78462205 47971
PROGRESS-MS 20          
1 52795U 22059A   23019.38502698  .00044714  00000+0  79094-3 0  9993
2 52795  51.6441 345.5952 0005080 248.4872 211.5591 15.49849381378703
CSS (WENTIAN)           
1 53239U 22085A   23019.28162384  .00019489  00000+0  23258-3 0  9991
2 53239  41.4763 343.6316 0004937 349.8525 153.2469 15.60568900 98540
1998-067TQ              
1 53305U 98067TQ  23025.12291328  .00453136  00000+0  16353-2 0  9997
2 53305  51.6321 301.5687 0005472 173.8322 186.2751 15.86905040 29290
YUZGU 8                 
1 53306U 98067TR  23025.79167360  .06976998  12119-4  11313-2 0  9991
2 53306  51.6030 292.9367 0006622 213.3410 249.1678 16.32712172 29462
1998-067TS              
1 53307U 98067TS  23025.33464312  .02167499  52831-2  17449-2 0  9992
2 53307  51.6206 296.1235 0008101 196.2309 163.8448 16.14860403 29411
YUZGU 9 (RS3S)          
1 53308U 98067TT  23025.25302799  .01641443  19610-2  17951-2 0  9995
2 53308  51.6231 297.1057 0007947 190.4309 169.6541 16.09493809 29421
YUZGU 7 (RS1S)          
1 53309U 98067TU  23025.04522515  .03153287  11809-4  16521-2 0  9995
2 53309  51.6182 297.1826 0007697 200.5946 159.4763 16.19377494 29350
YUZGU 11 (RS5S)         
1 53310U 98067TV  23025.30138711  .01917247  32562-2  17873-2 0  9997
2 53310  51.6242 296.6774 0007503 195.6052 164.4733 16.12235313 29419
TSIOLKOVSKY-RYAZAN 1 (*)
1 53312U 98067TX  23025.01230912  .02194501  54245-2  18243-2 0  9998
2 53312  51.6214 297.7331 0007632 195.6510 164.4271 16.14443091 29337
TSIOLKOVSKY-RYAZAN 2 (*)
1 53313U 98067TY  23025.31064335  .02369057  82373-2  17578-2 0  9999
2 53313  51.6207 295.9758 0007743 198.8217 161.2514 16.16750878 29437
YUZGU 10 (RS4S)         
1 53321U 98067TZ  23025.28279837  .02072942  43365-2  17898-2 0  9996
2 53321  51.6229 296.5499 0008072 195.4057 164.6714 16.13617358 29420
YUZGU UA                
1 53322U 98067UA  23025.85263318  .05091492  12003-4  13343-2 0  9999
2 53322  51.6205 292.5717 0007575 207.3019 272.6947 16.27678122 29476
HSU-SAT1                
1 53462U 98067UB  23025.01295916  .00195849  00000+0  12831-2 0  9997
2 53462  51.6338 306.1026 0004450  90.3717 269.7792 15.74634501 25854
FUTABA                  
1 53463U 98067UC  23025.46185914  .00370483  00000+0  14949-2 0  9994
2 53463  51.6290 300.8075 0004941 132.6646 227.4774 15.84802467 25965
TUMNANOSAT              
1 53464U 98067UD  23025.46691620  .01261510  92438-3  18059-2 0  9998
2 53464  51.6241 297.0325 0007096 178.2338 181.8700 16.04980973 26016
D3                      
1 53767U 98067UE  23024.76989790  .00114624  00000+0  10572-2 0  9998
2 53767  51.6356 311.2732 0004589  96.6299 263.5219 15.66732824 21883
BEAVERCUBE              
1 53768U 98067UF  23025.03769827  .00114500  00000+0  10718-2 0  9992
2 53768  51.6383 310.0589 0003359 108.1001 252.0360 15.66371223 21933
